H1 CPF  1  DLR 2022 02 18 10  5492 technosat            
H2  1704205 6203    42829 2022 02 18 00 00 00 2022 02 25 00 00 00    60 1 1  0 0 0
H9
10 0 59632  43200.000000  0       2396758.410      -2338947.271      -6124423.321
10 0 59632  43260.000000  0       2568019.974      -2699462.521      -5901830.787
10 0 59632  43320.000000  0       2725421.943      -3050117.476      -5654357.447
10 0 59632  43380.000000  0       2868390.573      -3389311.543      -5383029.635
10 0 59632  43440.000000  0       2996425.209      -3715485.061      -5088975.212
10 0 59632  43500.000000  0       3109100.121      -4027126.512      -4773419.212
10 0 59632  43560.000000  0       3206066.009      -4322779.624      -4437679.125
10 0 59632  43620.000000  0       3287051.167      -4601050.357      -4083159.787
10 0 59632  43680.000000  0       3351862.344      -4860613.720      -3711347.853
10 0 59632  43740.000000  0       3400385.227      -5100220.434      -3323805.856
10 0 59632  43800.000000  0       3432584.505      -5318703.340      -2922165.767
10 0 59632  43860.000000  0       3448503.513      -5514983.377      -2508122.174
10 0 59632  43920.000000  0       3448263.535      -5688075.195      -2083425.169
10 0 59632  43980.000000  0       3432062.714      -5837092.429      -1649872.948
10 0 59632  44040.000000  0       3400174.555      -5961252.572      -1209304.088
10 0 59632  44100.000000  0       3352946.051      -6059881.350       -763589.529
10 0 59632  44160.000000  0       3290795.380      -6132416.552       -314624.351
10 0 59632  44220.000000  0       3214209.196      -6178411.277        135680.546
10 0 59632  44280.000000  0       3123739.644      -6197536.676        585406.799
10 0 59632  44340.000000  0       3020001.078      -6189584.226       1032637.074
10 0 59632  44400.000000  0       2903666.415      -6154467.343       1475463.714
10 0 59632  44460.000000  0       2775463.168      -6092222.224       1911997.304
10 0 59632  44520.000000  0       2636169.189      -6003008.159       2340375.020
10 0 59632  44580.000000  0       2486608.183      -5887107.243       2758768.938
10 0 59632  44640.000000  0       2327645.010      -5744923.374       3165394.058
10 0 59632  44700.000000  0       2160180.870      -5576980.830       3558516.142
10 0 59632  44760.000000  0       1985148.291      -5383922.198       3936459.372
10 0 59632  44820.000000  0       1803505.978      -5166505.663       4297613.678
10 0 59632  44880.000000  0       1616233.630      -4925601.740       4640441.685
10 0 59632  44940.000000  0       1424326.759      -4662189.541       4963485.328
10 0 59632  45000.000000  0       1228791.396      -4377352.534       5265372.195
10 0 59632  45060.000000  0       1030638.758      -4072273.673       5544821.387
10 0 59632  45120.000000  0        830879.998      -3748230.073       5800648.834
10 0 59632  45180.000000  0        630521.048      -3406587.314       6031772.131
10 0 59632  45240.000000  0        430557.563      -3048793.406       6237214.926
10 0 59632  45300.000000  0        231969.979      -2676372.401       6416110.854
10 0 59632  45360.000000  0         35718.737      -2290917.667       6567706.982
10 0 59632  45420.000000  0       -157260.312      -1894084.908       6691366.755
10 0 59632  45480.000000  0       -346060.362      -1487584.954       6786572.536
10 0 59632  45540.000000  0       -529807.906      -1073176.200       6852927.651
10 0 59632  45600.000000  0       -707666.730       -652656.861       6890157.862
10 0 59632  45660.000000  0       -878841.707       -227857.074       6898112.373
10 0 59632  45720.000000  0      -1042582.358        199369.132       6876764.299
10 0 59632  45780.000000  0      -1198186.112        627151.997       6826210.657
10 0 59632  45840.000000  0      -1345001.297       1053614.240       6746671.832
10 0 59632  45900.000000  0      -1482429.842       1476879.306       6638490.596
10 0 59632  45960.000000  0      -1609929.726       1895079.653       6502130.633
10 0 59632  46020.000000  0      -1727017.088       2306365.014       6338174.560
10 0 59632  46080.000000  0      -1833268.051       2708910.621       6147321.498
10 0 59632  46140.000000  0      -1928320.222       3100925.373       5930384.107
10 0 59632  46200.000000  0      -2011873.840       3480659.800       5688285.215
10 0 59632  46260.000000  0      -2083692.646       3846413.981       5422054.071
10 0 59632  46320.000000  0      -2143604.455       4196545.314       5132822.055
10 0 59632  46380.000000  0      -2191501.360       4529476.028       4821817.921
10 0 59632  46440.000000  0      -2227339.598       4843700.449       4490362.642
10 0 59632  46500.000000  0      -2251139.100       5137791.983       4139863.865
10 0 59632  46560.000000  0      -2262982.725       5410409.795       3771809.931
10 0 59632  46620.000000  0      -2263015.153       5660305.075       3387763.501
10 0 59632  46680.000000  0      -2251441.467       5886326.876       2989354.885
10 0 59632  46740.000000  0      -2228525.425       6087427.580       2578275.093
10 0 59632  46800.000000  0      -2194587.437       6262667.917       2156268.551
10 0 59632  46860.000000  0      -2150002.218       6411221.459       1725125.565
10 0 59632  46920.000000  0      -2095196.177       6532378.586       1286674.605
10 0 59632  46980.000000  0      -2030644.542       6625549.945        842774.407
10 0 59632  47040.000000  0      -1956868.251       6690269.326        395305.916
10 0 59632  47100.000000  0      -1874430.620       6726195.946        -53835.837
10 0 59632  47160.000000  0      -1783933.836       6733116.205       -502749.939
10 0 59632  47220.000000  0      -1686015.229       6710944.850       -949537.895
10 0 59632  47280.000000  0      -1581343.330       6659725.406      -1392311.984
10 0 59632  47340.000000  0      -1470613.802       6579629.815      -1829203.387
10 0 59632  47400.000000  0      -1354545.335       6470957.601      -2258370.100
10 0 59632  47460.000000  0      -1233875.426       6334134.418      -2678004.709
10 0 59632  47520.000000  0      -1109356.124       6169710.098      -3086341.897
10 0 59632  47580.000000  0       -981749.748       5978356.189      -3481665.804
10 0 59632  47640.000000  0       -851824.607       5760862.915      -3862317.159
10 0 59632  47700.000000  0       -720350.743       5518135.577      -4226700.116
10 0 59632  47760.000000  0       -588095.708       5251190.468      -4573288.720
10 0 59632  47820.000000  0       -455820.406       4961150.365      -4900633.040
10 0 59632  47880.000000  0       -324275.016       4649239.598      -5207364.989
10 0 59632  47940.000000  0       -194195.009       4316778.672      -5492203.785
10 0 59632  48000.000000  0        -66297.297       3965178.475      -5753961.003
10 0 59632  48060.000000  0         58723.476       3595934.138      -5991545.208
10 0 59632  48120.000000  0        180198.464       3210618.555      -6203966.162
10 0 59632  48180.000000  0        297487.953       2810875.640      -6390338.576
10 0 59632  48240.000000  0        409984.513       2398413.364      -6549885.456
10 0 59632  48300.000000  0        517115.979       1974996.603      -6681941.069
10 0 59632  48360.000000  0        618348.215       1542439.707      -6785953.528
10 0 59632  48420.000000  0        713187.631       1102598.850      -6861486.873
10 0 59632  48480.000000  0        801183.473        657364.316      -6908222.725
10 0 59632  48540.000000  0        881929.907        208652.594      -6925961.605
10 0 59632  48600.000000  0        955067.821       -241601.687      -6914623.739
10 0 59632  48660.000000  0       1020286.380       -691453.845      -6874249.366
10 0 59632  48720.000000  0       1077324.339      -1138957.240      -6804998.672
10 0 59632  48780.000000  0       1125971.089      -1582171.432      -6707151.304
10 0 59632  48840.000000  0       1166067.441      -2019170.306      -6581105.492
10 0 59632  48900.000000  0       1197506.203      -2448050.241      -6427376.785
10 0 59632  48960.000000  0       1220232.465      -2866938.302      -6246596.348
10 0 59632  49020.000000  0       1234243.561      -3274000.429      -6039508.783
10 0 59632  49080.000000  0       1239588.750      -3667449.523      -5806969.405
10 0 59632  49140.000000  0       1236368.671      -4045553.326      -5549941.049
10 0 59632  49200.000000  0       1224734.540      -4406642.113      -5269490.479
10 0 59632  49260.000000  0       1204887.076      -4749116.213      -4966784.394
10 0 59632  49320.000000  0       1177075.135      -5071453.362      -4643085.023
10 0 59632  49380.000000  0       1141594.058      -5372215.820      -4299745.214
10 0 59632  49440.000000  0       1098783.771      -5650057.147      -3938203.053
10 0 59632  49500.000000  0       1049026.633      -5903728.612      -3559976.096
10 0 59632  49560.000000  0        992745.047      -6132085.224      -3166655.215
10 0 59632  49620.000000  0        930398.842      -6334091.365      -2759898.066
10 0 59632  49680.000000  0        862482.441      -6508825.973      -2341422.186
10 0 59632  49740.000000  0        789521.829      -6655487.230      -1912997.724
10 0 59632  49800.000000  0        712071.286      -6773396.693      -1476439.868
10 0 59632  49860.000000  0        630709.957      -6862002.825      -1033601.002
10 0 59632  49920.000000  0        546038.286      -6920883.936       -586362.650
10 0 59632  49980.000000  0        458674.323      -6949750.491       -136627.258
10 0 59632  50040.000000  0        369249.904      -6948446.808        313690.154
10 0 59632  50100.000000  0        278406.761      -6916952.098        762670.463
10 0 59632  50160.000000  0        186792.578      -6855380.849       1208398.965
10 0 59632  50220.000000  0         95056.995      -6763982.533       1648973.918
10 0 59632  50280.000000  0          3847.605      -6643140.601       2082515.070
10 0 59632  50340.000000  0        -86194.011      -6493370.807       2507172.053
99
